CCSDS_OMM_VERS = 2.0
CREATION_DATE  = 
ORIGINATOR     = 

OBJECT_NAME    = ATLAS CENTAUR R/B
OBJECT_ID      = 1972-065B
CENTER_NAME    = EARTH
REF_FRAME      = TEME
TIME_SYSTEM    = UTC
MEAN_ELEMENT_THEORY = SGP/SGP4

EPOCH          = 2026-01-07T04:53:41.393184
MEAN_MOTION    = 14.77490827
ECCENTRICITY   = .0034312
INCLINATION    = 35.0025
RA_OF_ASC_NODE = 306.0288
ARG_OF_PERICENTER = 214.0024
MEAN_ANOMALY   = 145.8476

EPHEMERIS_TYPE = 0
CLASSIFICATION_TYPE = U
NORAD_CAT_ID   = 6155
ELEMENT_SET_NO = 999
REV_AT_EPOCH   = 83216
BSTAR          = .20062E-3
MEAN_MOTION_DOT = .1445E-4
MEAN_MOTION_DDOT = 0

CCSDS_OMM_VERS = 2.0
CREATION_DATE  = 
ORIGINATOR     = 

OBJECT_NAME    = SL-8 R/B
OBJECT_ID      = 1975-112B
CENTER_NAME    = EARTH
REF_FRAME      = TEME
TIME_SYSTEM    = UTC
MEAN_ELEMENT_THEORY = SGP/SGP4

EPOCH          = 2026-01-07T11:58:16.882464
MEAN_MOTION    = 14.38165821
ECCENTRICITY   = .0016608
INCLINATION    = 74.0612
RA_OF_ASC_NODE = 131.4781
ARG_OF_PERICENTER = 240.3264
MEAN_ANOMALY   = 119.6237

EPHEMERIS_TYPE = 0
CLASSIFICATION_TYPE = U
NORAD_CAT_ID   = 8459
ELEMENT_SET_NO = 999
REV_AT_EPOCH   = 62307
BSTAR          = .11556E-3
MEAN_MOTION_DOT = .325E-5
MEAN_MOTION_DDOT = 0

CCSDS_OMM_VERS = 2.0
CREATION_DATE  = 
ORIGINATOR     = 

OBJECT_NAME    = SL-3 R/B
OBJECT_ID      = 1977-057B
CENTER_NAME    = EARTH
REF_FRAME      = TEME
TIME_SYSTEM    = UTC
MEAN_ELEMENT_THEORY = SGP/SGP4

EPOCH          = 2026-01-07T10:22:33.998016
MEAN_MOTION    = 15.43681136
ECCENTRICITY   = .0008125
INCLINATION    = 97.5700
RA_OF_ASC_NODE = 176.7759
ARG_OF_PERICENTER = 137.1930
MEAN_ANOMALY   = 222.9951

EPHEMERIS_TYPE = 0
CLASSIFICATION_TYPE = U
NORAD_CAT_ID   = 10114
ELEMENT_SET_NO = 999
REV_AT_EPOCH   = 65887
BSTAR          = .26019E-3
MEAN_MOTION_DOT = .11657E-3
MEAN_MOTION_DDOT = 0

CCSDS_OMM_VERS = 2.0
CREATION_DATE  = 
ORIGINATOR     = 

OBJECT_NAME    = SEASAT 1
OBJECT_ID      = 1978-064A
CENTER_NAME    = EARTH
REF_FRAME      = TEME
TIME_SYSTEM    = UTC
MEAN_ELEMENT_THEORY = SGP/SGP4

EPOCH          = 2026-01-07T11:38:24.394848
MEAN_MOTION    = 14.46095722
ECCENTRICITY   = .000117
INCLINATION    = 108.0149
RA_OF_ASC_NODE = 357.0525
ARG_OF_PERICENTER = 267.8277
MEAN_ANOMALY   = 92.2735

EPHEMERIS_TYPE = 0
CLASSIFICATION_TYPE = U
NORAD_CAT_ID   = 10967
ELEMENT_SET_NO = 999
REV_AT_EPOCH   = 49766
BSTAR          = .16107E-3
MEAN_MOTION_DOT = .438E-5
MEAN_MOTION_DDOT = 0

CCSDS_OMM_VERS = 2.0
CREATION_DATE  = 
ORIGINATOR     = 

OBJECT_NAME    = SL-14 R/B
OBJECT_ID      = 1979-011B
CENTER_NAME    = EARTH
REF_FRAME      = TEME
TIME_SYSTEM    = UTC
MEAN_ELEMENT_THEORY = SGP/SGP4

EPOCH          = 2026-01-07T11:28:08.553792
MEAN_MOTION    = 14.91812201
ECCENTRICITY   = .0014649
INCLINATION    = 82.5251
RA_OF_ASC_NODE = 154.6341
ARG_OF_PERICENTER = 261.4177
MEAN_ANOMALY   = 98.5383

EPHEMERIS_TYPE = 0
CLASSIFICATION_TYPE = U
NORAD_CAT_ID   = 11267
ELEMENT_SET_NO = 999
REV_AT_EPOCH   = 51965
BSTAR          = .79534E-4
MEAN_MOTION_DOT = .829E-5
MEAN_MOTION_DDOT = 0

CCSDS_OMM_VERS = 2.0
CREATION_DATE  = 
ORIGINATOR     = 

OBJECT_NAME    = SL-8 R/B
OBJECT_ID      = 1979-089B
CENTER_NAME    = EARTH
REF_FRAME      = TEME
TIME_SYSTEM    = UTC
MEAN_ELEMENT_THEORY = SGP/SGP4

EPOCH          = 2026-01-07T12:00:24.376896
MEAN_MOTION    = 14.42301376
ECCENTRICITY   = .0015167
INCLINATION    = 74.0672
RA_OF_ASC_NODE = 204.3010
ARG_OF_PERICENTER = 28.5912
MEAN_ANOMALY   = 331.6073

EPHEMERIS_TYPE = 0
CLASSIFICATION_TYPE = U
NORAD_CAT_ID   = 11574
ELEMENT_SET_NO = 999
REV_AT_EPOCH   = 42728
BSTAR          = .91483E-4
MEAN_MOTION_DOT = .276E-5
MEAN_MOTION_DDOT = 0

CCSDS_OMM_VERS = 2.0
CREATION_DATE  = 
ORIGINATOR     = 

OBJECT_NAME    = SL-14 R/B
OBJECT_ID      = 1980-005B
CENTER_NAME    = EARTH
REF_FRAME      = TEME
TIME_SYSTEM    = UTC
MEAN_ELEMENT_THEORY = SGP/SGP4

EPOCH          = 2026-01-07T10:49:04.438848
MEAN_MOTION    = 14.90830900
ECCENTRICITY   = .0016123
INCLINATION    = 82.5141
RA_OF_ASC_NODE = 5.3109
ARG_OF_PERICENTER = 13.6241
MEAN_ANOMALY   = 346.5410

EPHEMERIS_TYPE = 0
CLASSIFICATION_TYPE = U
NORAD_CAT_ID   = 11672
ELEMENT_SET_NO = 999
REV_AT_EPOCH   = 46736
BSTAR          = .77126E-4
MEAN_MOTION_DOT = .786E-5
MEAN_MOTION_DDOT = 0

CCSDS_OMM_VERS = 2.0
CREATION_DATE  = 
ORIGINATOR     = 

OBJECT_NAME    = SL-8 R/B
OBJECT_ID      = 1981-003B
CENTER_NAME    = EARTH
REF_FRAME      = TEME
TIME_SYSTEM    = UTC
MEAN_ELEMENT_THEORY = SGP/SGP4

EPOCH          = 2026-01-07T08:37:26.125824
MEAN_MOTION    = 15.08115157
ECCENTRICITY   = .0274227
INCLINATION    = 82.9383
RA_OF_ASC_NODE = 346.6260
ARG_OF_PERICENTER = 32.4122
MEAN_ANOMALY   = 329.3619

EPHEMERIS_TYPE = 0
CLASSIFICATION_TYPE = U
NORAD_CAT_ID   = 12139
ELEMENT_SET_NO = 999
REV_AT_EPOCH   = 30542
BSTAR          = .60709E-3
MEAN_MOTION_DOT = .23012E-3
MEAN_MOTION_DDOT = 0

CCSDS_OMM_VERS = 2.0
CREATION_DATE  = 
ORIGINATOR     = 

OBJECT_NAME    = SL-3 R/B
OBJECT_ID      = 1981-046B
CENTER_NAME    = EARTH
REF_FRAME      = TEME
TIME_SYSTEM    = UTC
MEAN_ELEMENT_THEORY = SGP/SGP4

EPOCH          = 2026-01-07T10:14:07.179936
MEAN_MOTION    = 15.40257855
ECCENTRICITY   = .0018115
INCLINATION    = 81.2326
RA_OF_ASC_NODE = 3.1922
ARG_OF_PERICENTER = 228.7369
MEAN_ANOMALY   = 131.2313

EPHEMERIS_TYPE = 0
CLASSIFICATION_TYPE = U
NORAD_CAT_ID   = 12465
ELEMENT_SET_NO = 999
REV_AT_EPOCH   = 42899
BSTAR          = .24924E-3
MEAN_MOTION_DOT = .10116E-3
MEAN_MOTION_DDOT = 0

CCSDS_OMM_VERS = 2.0
CREATION_DATE  = 
ORIGINATOR     = 

OBJECT_NAME    = SL-3 R/B
OBJECT_ID      = 1981-103B
CENTER_NAME    = EARTH
REF_FRAME      = TEME
TIME_SYSTEM    = UTC
MEAN_ELEMENT_THEORY = SGP/SGP4

EPOCH          = 2026-01-07T11:00:25.049664
MEAN_MOTION    = 15.20600250
ECCENTRICITY   = .0013999
INCLINATION    = 81.1596
RA_OF_ASC_NODE = 285.2283
ARG_OF_PERICENTER = 126.4276
MEAN_ANOMALY   = 233.8248

EPHEMERIS_TYPE = 0
CLASSIFICATION_TYPE = U
NORAD_CAT_ID   = 12904
ELEMENT_SET_NO = 999
REV_AT_EPOCH   = 96392
BSTAR          = .251E-3
MEAN_MOTION_DOT = .5539E-4
MEAN_MOTION_DDOT = 0

CCSDS_OMM_VERS = 2.0
CREATION_DATE  = 
ORIGINATOR     = 

OBJECT_NAME    = SL-3 R/B
OBJECT_ID      = 1982-013B
CENTER_NAME    = EARTH
REF_FRAME      = TEME
TIME_SYSTEM    = UTC
MEAN_ELEMENT_THEORY = SGP/SGP4

EPOCH          = 2026-01-07T10:16:42.530592
MEAN_MOTION    = 15.21349408
ECCENTRICITY   = .002344
INCLINATION    = 81.1727
RA_OF_ASC_NODE = 232.5365
ARG_OF_PERICENTER = 28.4371
MEAN_ANOMALY   = 331.8134

EPHEMERIS_TYPE = 0
CLASSIFICATION_TYPE = U
NORAD_CAT_ID   = 13068
ELEMENT_SET_NO = 999
REV_AT_EPOCH   = 39503
BSTAR          = .19221E-3
MEAN_MOTION_DOT = .4362E-4
MEAN_MOTION_DDOT = 0

CCSDS_OMM_VERS = 2.0
CREATION_DATE  = 
ORIGINATOR     = 

OBJECT_NAME    = SL-3 R/B
OBJECT_ID      = 1982-039B
CENTER_NAME    = EARTH
REF_FRAME      = TEME
TIME_SYSTEM    = UTC
MEAN_ELEMENT_THEORY = SGP/SGP4

EPOCH          = 2026-01-07T08:34:11.934912
MEAN_MOTION    = 15.09708757
ECCENTRICITY   = .0029692
INCLINATION    = 81.1693
RA_OF_ASC_NODE = 286.6210
ARG_OF_PERICENTER = 165.5463
MEAN_ANOMALY   = 194.6618

EPHEMERIS_TYPE = 0
CLASSIFICATION_TYPE = U
NORAD_CAT_ID   = 13154
ELEMENT_SET_NO = 999
REV_AT_EPOCH   = 37238
BSTAR          = .17498E-3
MEAN_MOTION_DOT = .2872E-4
MEAN_MOTION_DDOT = 0

