ATLAS CENTAUR R/B       
1 06155U 72065B   26007.20395131  .00001445  00000+0  20062-3 0  9992
2 06155  35.0025 306.0288 0034312 214.0024 145.8476 14.77490827832161
SL-8 R/B                
1 08459U 75112B   26007.49880651  .00000325  00000+0  11556-3 0  9998
2 08459  74.0612 131.4781 0016608 240.3264 119.6237 14.38165821623071
SL-3 R/B                
1 10114U 77057B   26007.43233794  .00011657  00000+0  26019-3 0  9993
2 10114  97.5700 176.7759 0008125 137.1930 222.9951 15.43681136658871
SEASAT 1                
1 10967U 78064A   26007.48500457  .00000438  00000+0  16107-3 0  9998
2 10967 108.0149 357.0525 0001170 267.8277  92.2735 14.46095722497663
SL-14 R/B               
1 11267U 79011B   26007.47787678  .00000829  00000+0  79534-4 0  9994
2 11267  82.5251 154.6341 0014649 261.4177  98.5383 14.91812201519659
SL-8 R/B                
1 11574U 79089B   26007.50028214  .00000276  00000+0  91483-4 0  9991
2 11574  74.0672 204.3010 0015167  28.5912 331.6073 14.42301376427280
SL-14 R/B               
1 11672U 80005B   26007.45074582  .00000786  00000+0  77126-4 0  9997
2 11672  82.5141   5.3109 0016123  13.6241 346.5410 14.90830900467361
SL-8 R/B                
1 12139U 81003B   26007.35933016  .00023012  00000+0  60709-3 0  9995
2 12139  82.9383 346.6260 0274227  32.4122 329.3619 15.08115157305427
SL-3 R/B                
1 12465U 81046B   26007.42647199  .00010116  00000+0  24924-3 0  9996
2 12465  81.2326   3.1922 0018115 228.7369 131.2313 15.40257855428990
SL-3 R/B                
1 12904U 81103B   26007.45862326  .00005539  00000+0  25100-3 0  9992
2 12904  81.1596 285.2283 0013999 126.4276 233.8248 15.20600250963927
SL-3 R/B                
1 13068U 82013B   26007.42827003  .00004362  00000+0  19221-3 0  9995
2 13068  81.1727 232.5365 0023440  28.4371 331.8134 15.21349408395030
SL-3 R/B                
1 13154U 82039B   26007.35708258  .00002872  00000+0  17498-3 0  9999
2 13154  81.1693 286.6210 0029692 165.5463 194.6618 15.09708757372384
